CCSDS_OMM_VERS = 2.0
CREATION_DATE  = 
ORIGINATOR     = 

OBJECT_NAME    = SL-16 R/B
OBJECT_ID      = 1993-016B
CENTER_NAME    = EARTH
REF_FRAME      = TEME
TIME_SYSTEM    = UTC
MEAN_ELEMENT_THEORY = SGP/SGP4

EPOCH          = 2026-01-25T02:25:55.894368
MEAN_MOTION    = 14.15297855
ECCENTRICITY   = .00092975
INCLINATION    = 71.0088
RA_OF_ASC_NODE = 306.7325
ARG_OF_PERICENTER = 17.9765
MEAN_ANOMALY   = 342.1685

EPHEMERIS_TYPE = 0
CLASSIFICATION_TYPE = U
NORAD_CAT_ID   = 22566
ELEMENT_SET_NO = 999
REV_AT_EPOCH   = 69600
BSTAR          = .23028316E-3
MEAN_MOTION_DOT = .401E-5
MEAN_MOTION_DDOT = 0

CCSDS_OMM_VERS = 2.0
CREATION_DATE  = 
ORIGINATOR     = 

OBJECT_NAME    = COSMOS 2242
OBJECT_ID      = 1993-024A
CENTER_NAME    = EARTH
REF_FRAME      = TEME
TIME_SYSTEM    = UTC
MEAN_ELEMENT_THEORY = SGP/SGP4

EPOCH          = 2026-01-25T05:45:08.159328
MEAN_MOTION    = 14.96341725
ECCENTRICITY   = .00181226
INCLINATION    = 82.5205
RA_OF_ASC_NODE = 308.2669
ARG_OF_PERICENTER = 90.7376
MEAN_ANOMALY   = 269.5923

EPHEMERIS_TYPE = 0
CLASSIFICATION_TYPE = U
NORAD_CAT_ID   = 22626
ELEMENT_SET_NO = 999
REV_AT_EPOCH   = 77389
BSTAR          = .31718888E-3
MEAN_MOTION_DOT = .3625E-4
MEAN_MOTION_DDOT = 0

CCSDS_OMM_VERS = 2.0
CREATION_DATE  = 
ORIGINATOR     = 

OBJECT_NAME    = SL-16 R/B
OBJECT_ID      = 1993-059B
CENTER_NAME    = EARTH
REF_FRAME      = TEME
TIME_SYSTEM    = UTC
MEAN_ELEMENT_THEORY = SGP/SGP4

EPOCH          = 2026-01-25T06:44:46.068000
MEAN_MOTION    = 14.17223716
ECCENTRICITY   = .00195769
INCLINATION    = 70.9906
RA_OF_ASC_NODE = 102.6710
ARG_OF_PERICENTER = 275.5860
MEAN_ANOMALY   = 84.3031

EPHEMERIS_TYPE = 0
CLASSIFICATION_TYPE = U
NORAD_CAT_ID   = 22803
ELEMENT_SET_NO = 999
REV_AT_EPOCH   = 67338
BSTAR          = -.47092325E-4
MEAN_MOTION_DOT = -.143E-5
MEAN_MOTION_DDOT = 0

CCSDS_OMM_VERS = 2.0
CREATION_DATE  = 
ORIGINATOR     = 

OBJECT_NAME    = ARIANE 40 R/B
OBJECT_ID      = 1993-061H
CENTER_NAME    = EARTH
REF_FRAME      = TEME
TIME_SYSTEM    = UTC
MEAN_ELEMENT_THEORY = SGP/SGP4

EPOCH          = 2026-01-25T02:58:34.169376
MEAN_MOTION    = 14.32835479
ECCENTRICITY   = .00115696
INCLINATION    = 98.5008
RA_OF_ASC_NODE = 94.8514
ARG_OF_PERICENTER = 57.3622
MEAN_ANOMALY   = 302.8677

EPHEMERIS_TYPE = 0
CLASSIFICATION_TYPE = U
NORAD_CAT_ID   = 22830
ELEMENT_SET_NO = 999
REV_AT_EPOCH   = 68786
BSTAR          = .1907676E-3
MEAN_MOTION_DOT = .478E-5
MEAN_MOTION_DDOT = 0

CCSDS_OMM_VERS = 2.0
CREATION_DATE  = 
ORIGINATOR     = 

OBJECT_NAME    = COSMOS 2278
OBJECT_ID      = 1994-023A
CENTER_NAME    = EARTH
REF_FRAME      = TEME
TIME_SYSTEM    = UTC
MEAN_ELEMENT_THEORY = SGP/SGP4

EPOCH          = 2026-01-25T02:27:24.123456
MEAN_MOTION    = 14.14367163
ECCENTRICITY   = .00063011
INCLINATION    = 71.0532
RA_OF_ASC_NODE = 266.2909
ARG_OF_PERICENTER = 96.6137
MEAN_ANOMALY   = 263.5703

EPHEMERIS_TYPE = 0
CLASSIFICATION_TYPE = U
NORAD_CAT_ID   = 23087
ELEMENT_SET_NO = 999
REV_AT_EPOCH   = 63864
BSTAR          = .65125E-5
MEAN_MOTION_DOT = -.35E-6
MEAN_MOTION_DDOT = 0

CCSDS_OMM_VERS = 2.0
CREATION_DATE  = 
ORIGINATOR     = 

OBJECT_NAME    = SL-16 R/B
OBJECT_ID      = 1994-023B
CENTER_NAME    = EARTH
REF_FRAME      = TEME
TIME_SYSTEM    = UTC
MEAN_ELEMENT_THEORY = SGP/SGP4

EPOCH          = 2026-01-24T11:04:49.765440
MEAN_MOTION    = 14.15007030
ECCENTRICITY   = .0004062
INCLINATION    = 71.0001
RA_OF_ASC_NODE = 163.7692
ARG_OF_PERICENTER = 326.8597
MEAN_ANOMALY   = 33.2271

EPHEMERIS_TYPE = 0
CLASSIFICATION_TYPE = U
NORAD_CAT_ID   = 23088
ELEMENT_SET_NO = 999
REV_AT_EPOCH   = 63983
BSTAR          = -.10883734E-4
MEAN_MOTION_DOT = -.69E-6
MEAN_MOTION_DDOT = 0

CCSDS_OMM_VERS = 2.0
CREATION_DATE  = 
ORIGINATOR     = 

OBJECT_NAME    = SL-16 R/B
OBJECT_ID      = 1994-074B
CENTER_NAME    = EARTH
REF_FRAME      = TEME
TIME_SYSTEM    = UTC
MEAN_ELEMENT_THEORY = SGP/SGP4

EPOCH          = 2026-01-25T07:34:05.952288
MEAN_MOTION    = 14.79351115
ECCENTRICITY   = .00068363
INCLINATION    = 97.7162
RA_OF_ASC_NODE = 57.8796
ARG_OF_PERICENTER = 15.3880
MEAN_ANOMALY   = 113.1205

EPHEMERIS_TYPE = 0
CLASSIFICATION_TYPE = U
NORAD_CAT_ID   = 23343
ELEMENT_SET_NO = 999
REV_AT_EPOCH   = 68083
BSTAR          = .12503261E-3
MEAN_MOTION_DOT = .882E-5
MEAN_MOTION_DDOT = 0

CCSDS_OMM_VERS = 2.0
CREATION_DATE  = 
ORIGINATOR     = 

OBJECT_NAME    = SL-16 R/B
OBJECT_ID      = 1994-077B
CENTER_NAME    = EARTH
REF_FRAME      = TEME
TIME_SYSTEM    = UTC
MEAN_ELEMENT_THEORY = SGP/SGP4

EPOCH          = 2026-01-25T07:24:18.418464
MEAN_MOTION    = 14.15558896
ECCENTRICITY   = .00048257
INCLINATION    = 70.9828
RA_OF_ASC_NODE = 83.7574
ARG_OF_PERICENTER = 251.0627
MEAN_ANOMALY   = 108.9973

EPHEMERIS_TYPE = 0
CLASSIFICATION_TYPE = U
NORAD_CAT_ID   = 23405
ELEMENT_SET_NO = 999
REV_AT_EPOCH   = 61009
BSTAR          = -.24492342E-4
MEAN_MOTION_DOT = -.96E-6
MEAN_MOTION_DDOT = 0

CCSDS_OMM_VERS = 2.0
CREATION_DATE  = 
ORIGINATOR     = 

OBJECT_NAME    = ARIANE 40+ R/B
OBJECT_ID      = 1995-021B
CENTER_NAME    = EARTH
REF_FRAME      = TEME
TIME_SYSTEM    = UTC
MEAN_ELEMENT_THEORY = SGP/SGP4

EPOCH          = 2026-01-25T04:07:22.063296
MEAN_MOTION    = 14.39737071
ECCENTRICITY   = .0005616
INCLINATION    = 98.4584
RA_OF_ASC_NODE = 97.2245
ARG_OF_PERICENTER = 271.8914
MEAN_ANOMALY   = 142.5824

EPHEMERIS_TYPE = 0
CLASSIFICATION_TYPE = U
NORAD_CAT_ID   = 23561
ELEMENT_SET_NO = 999
REV_AT_EPOCH   = 61298
BSTAR          = .20735491E-3
MEAN_MOTION_DOT = .606E-5
MEAN_MOTION_DDOT = 0

CCSDS_OMM_VERS = 2.0
CREATION_DATE  = 
ORIGINATOR     = 

OBJECT_NAME    = SL-16 R/B
OBJECT_ID      = 1995-058B
CENTER_NAME    = EARTH
REF_FRAME      = TEME
TIME_SYSTEM    = UTC
MEAN_ELEMENT_THEORY = SGP/SGP4

EPOCH          = 2026-01-25T02:25:59.470464
MEAN_MOTION    = 14.15488631
ECCENTRICITY   = .00131195
INCLINATION    = 71.0205
RA_OF_ASC_NODE = 271.7691
ARG_OF_PERICENTER = 196.3418
MEAN_ANOMALY   = 163.7284

EPHEMERIS_TYPE = 0
CLASSIFICATION_TYPE = U
NORAD_CAT_ID   = 23705
ELEMENT_SET_NO = 999
REV_AT_EPOCH   = 56168
BSTAR          = -.68716852E-4
MEAN_MOTION_DOT = -.182E-5
MEAN_MOTION_DDOT = 0

CCSDS_OMM_VERS = 2.0
CREATION_DATE  = 
ORIGINATOR     = 

OBJECT_NAME    = SL-16 R/B
OBJECT_ID      = 1996-051B
CENTER_NAME    = EARTH
REF_FRAME      = TEME
TIME_SYSTEM    = UTC
MEAN_ELEMENT_THEORY = SGP/SGP4

EPOCH          = 2026-01-25T02:45:35.699328
MEAN_MOTION    = 14.12403474
ECCENTRICITY   = .00184802
INCLINATION    = 70.7578
RA_OF_ASC_NODE = 267.4733
ARG_OF_PERICENTER = 207.5879
MEAN_ANOMALY   = 152.4262

EPHEMERIS_TYPE = 0
CLASSIFICATION_TYPE = U
NORAD_CAT_ID   = 24298
ELEMENT_SET_NO = 999
REV_AT_EPOCH   = 51549
BSTAR          = .72043152E-4
MEAN_MOTION_DOT = .84E-6
MEAN_MOTION_DDOT = 0

CCSDS_OMM_VERS = 2.0
CREATION_DATE  = 
ORIGINATOR     = 

OBJECT_NAME    = ORBVIEW 2 (SEASTAR)
OBJECT_ID      = 1997-037A
CENTER_NAME    = EARTH
REF_FRAME      = TEME
TIME_SYSTEM    = UTC
MEAN_ELEMENT_THEORY = SGP/SGP4

EPOCH          = 2026-01-25T06:31:21.347040
MEAN_MOTION    = 14.35457706
ECCENTRICITY   = .0002347
INCLINATION    = 98.8494
RA_OF_ASC_NODE = 188.4516
ARG_OF_PERICENTER = 164.0810
MEAN_ANOMALY   = 196.0449

EPHEMERIS_TYPE = 0
CLASSIFICATION_TYPE = U
NORAD_CAT_ID   = 24883
ELEMENT_SET_NO = 999
REV_AT_EPOCH   = 50224
BSTAR          = .23391573E-3
MEAN_MOTION_DOT = .626E-5
MEAN_MOTION_DDOT = 0

