SL-16 R/B               
1 22566U 93016B   26025.10134137  .00000401  00000+0  23028-3 0  9997
2 22566  71.0088 306.7325 0009297  17.9765 342.1685 14.15297855696002
COSMOS 2242             
1 22626U 93024A   26025.23967777  .00003625  00000+0  31719-3 0  9998
2 22626  82.5205 308.2669 0018122  90.7376 269.5923 14.96341725773894
SL-16 R/B               
1 22803U 93059B   26025.28108875 -.00000143  00000+0 -47092-4 0  9990
2 22803  70.9906 102.6710 0019576 275.5860  84.3031 14.17223716673386
ARIANE 40 R/B           
1 22830U 93061H   26025.12400659  .00000478  00000+0  19077-3 0  9991
2 22830  98.5008  94.8514 0011569  57.3622 302.8677 14.32835479687869
COSMOS 2278             
1 23087U 94023A   26025.10236254 -.00000035  00000+0  65125-5 0  9998
2 23087  71.0532 266.2909 0006301  96.6137 263.5703 14.14367163638645
SL-16 R/B               
1 23088U 94023B   26024.46168710 -.00000069  00000+0 -10884-4 0  9997
2 23088  71.0001 163.7692 0004062 326.8597  33.2271 14.15007030639836
SL-16 R/B               
1 23343U 94074B   26025.31534667  .00000882  00000+0  12503-3 0  9990
2 23343  97.7162  57.8796 0006836  15.3880 113.1205 14.79351115680834
SL-16 R/B               
1 23405U 94077B   26025.30854651 -.00000096  00000+0 -24492-4 0  9999
2 23405  70.9828  83.7574 0004825 251.0627 108.9973 14.15558896610091
ARIANE 40+ R/B          
1 23561U 95021B   26025.17178314  .00000606  00000+0  20735-3 0  9992
2 23561  98.4584  97.2245 0005616 271.8914 142.5824 14.39737071612980
SL-16 R/B               
1 23705U 95058B   26025.10138276 -.00000182  00000+0 -68717-4 0  9992
2 23705  71.0205 271.7691 0013119 196.3418 163.7284 14.15488631561682
SL-16 R/B               
1 24298U 96051B   26025.11499652  .00000084  00000+0  72043-4 0  9999
2 24298  70.7578 267.4733 0018480 207.5879 152.4262 14.12403474515498
ORBVIEW 2 (SEASTAR)     
1 24883U 97037A   26025.27177485  .00000626  00000+0  23392-3 0  9992
2 24883  98.8494 188.4516 0002347 164.0810 196.0449 14.35457706502246
